H1 CPF 01  gfz 2021 05 21 12  6412 tandemx   
H2 1003001  6202 36605    2021 05 21 12 59 42 2021 05 26 00 00 42   120 1 1  0 0 0
H9
10 0 59358  35982.000000  0   -3046417.372   5762744.695   2221016.532
10 0 59358  36102.000000  0   -2724599.834   5536060.591   3054823.993
10 0 59358  36222.000000  0   -2360011.853   5206569.699   3834834.846
10 0 59358  36342.000000  0   -1960790.355   4779372.370   4547326.251
10 0 59358  36462.000000  0   -1535573.363   4261430.277   5179776.943
10 0 59358  36582.000000  0   -1093313.363   3661445.374   5721087.403
10 0 59358  36702.000000  0    -643089.072   2989705.065   6161771.009
10 0 59358  36822.000000  0    -193919.830   2257898.358   6494114.744
10 0 59358  36942.000000  0     245413.739   1478907.943   6712307.952
10 0 59358  37062.000000  0     666540.586    666580.068   6812538.875
10 0 59358  37182.000000  0    1061657.697   -164522.414   6793055.990
10 0 59358  37302.000000  0    1423673.689   -999380.035   6654197.584
10 0 59358  37422.000000  0    1746335.951  -1822787.944   6398386.667
10 0 59358  37542.000000  0    2024339.103  -2619632.382   6030091.932
10 0 59358  37662.000000  0    2253413.299  -3375169.687   5555754.757
10 0 59358  37782.000000  0    2430390.741  -4075302.074   4983681.649
10 0 59358  37902.000000  0    2553248.792  -4706844.724   4323904.360
10 0 59358  38022.000000  0    2621130.662  -5257780.830   3588008.840
10 0 59358  38142.000000  0    2634341.338  -5717498.322   2788933.740
10 0 59358  38262.000000  0    2594318.275  -6077003.190   1940742.301
10 0 59358  38382.000000  0    2503577.923  -6329101.689   1058370.750
10 0 59358  38502.000000  0    2365640.037  -6468549.059    157360.816
10 0 59358  38622.000000  0    2184931.261  -6492162.528   -746421.606
10 0 59358  38742.000000  0    1966669.147  -6398891.622  -1637076.594
10 0 59358  38862.000000  0    1716729.088  -6189844.146  -2498958.271
10 0 59358  38982.000000  0    1441499.199  -5868270.005  -3316957.238
10 0 59358  39102.000000  0    1147727.024  -5439498.441  -4076768.635
10 0 59358  39222.000000  0     842363.568  -4910838.157  -4765141.247
10 0 59358  39342.000000  0     532406.297  -4291440.534  -5370104.131
10 0 59358  39462.000000  0     224745.613  -3592130.413  -5881167.198
10 0 59358  39582.000000  0     -73982.027  -2825207.908  -6289492.972
10 0 59358  39702.000000  0    -357531.245  -2004226.607  -6588037.783
10 0 59358  39822.000000  0    -620172.918  -1143752.494  -6771661.891
10 0 59358  39942.000000  0    -856805.070   -259107.723  -6837209.132
10 0 59358  40062.000000  0   -1063048.146    633897.888  -6783554.570
10 0 59358  40182.000000  0   -1235323.805   1519241.901  -6611620.851
10 0 59358  40302.000000  0   -1370915.599   2380969.322  -6324363.830
10 0 59358  40422.000000  0   -1468011.038   3203473.145  -5926728.439
10 0 59358  40542.000000  0   -1525725.095   3971774.131  -5425573.176
10 0 59358  40662.000000  0   -1544103.705   4671793.100  -4829562.912
10 0 59358  40782.000000  0   -1524108.090   5290613.194  -4149030.733
10 0 59358  40902.000000  0   -1467579.214   5816725.394  -3395808.123
10 0 59358  41022.000000  0   -1377182.498   6240251.417  -2583026.856
10 0 59358  41142.000000  0   -1256334.379   6553140.726  -1724895.604
10 0 59358  41262.000000  0   -1109111.682   6749335.569   -836452.130
10 0 59358  41382.000000  0    -940145.995   6824898.786     66701.915
10 0 59358  41502.000000  0    -754504.949   6778102.745    968680.744
10 0 59358  41622.000000  0    -557563.637   6609473.273   1853603.977
10 0 59358  41742.000000  0    -354869.656   6321785.045   2705886.517
10 0 59358  41862.000000  0    -152005.517   5920011.925   3510519.922
10 0 59358  41982.000000  0      45547.926   5411235.769   4253341.690
10 0 59358  42102.000000  0     232544.033   4804515.277   4921291.280
10 0 59358  42222.000000  0     404096.767   4110709.639   5502640.981
10 0 59358  42342.000000  0     555796.318   3342275.961   5987196.176
10 0 59358  42462.000000  0     683811.833   2513037.783   6366471.505
10 0 59358  42582.000000  0     784978.725   1637929.591   6633833.269
10 0 59358  42702.000000  0     856869.894    732723.638   6784609.746
10 0 59358  42822.000000  0     897849.221   -186255.801   6816166.957
10 0 59358  42942.000000  0     907106.530  -1102425.574   6727952.589
10 0 59358  43062.000000  0     884673.284  -1999242.994   6521505.913
10 0 59358  43182.000000  0     831418.817  -2860504.493   6200433.118
10 0 59358  43302.000000  0     749026.946  -3670640.656   5770347.747
10 0 59358  43422.000000  0     639953.476  -4414999.263   5238775.757
10 0 59358  43542.000000  0     507366.810  -5080113.379   4615030.304
10 0 59358  43662.000000  0     355071.471  -5653952.609   3910055.673
10 0 59358  43782.000000  0     187415.031  -6126151.378   3136238.791
10 0 59358  43902.000000  0       9181.138  -6488206.746   2307192.077
10 0 59358  44022.000000  0    -174529.134  -6733640.483   1437511.568
10 0 59358  44142.000000  0    -358424.351  -6858123.986    542516.355
10 0 59358  44262.000000  0    -537155.848  -6859561.181   -362030.245
10 0 59358  44382.000000  0    -705452.620  -6738123.912  -1260208.488
10 0 59358  44502.000000  0    -858254.064  -6496241.033  -2136230.989
10 0 59358  44622.000000  0    -990837.875  -6138543.593  -2974726.740
10 0 59358  44742.000000  0   -1098940.201  -5671766.996  -3761015.895
10 0 59358  44862.000000  0   -1178864.716  -5104611.934  -4481368.785
10 0 59358  44982.000000  0   -1227577.761  -4447568.968  -5123242.667
10 0 59358  45102.000000  0   -1242787.997  -3712713.259  -5675493.307
10 0 59358  45222.000000  0   -1223008.767  -2913473.904  -6128559.399
10 0 59358  45342.000000  0   -1167602.218  -2064382.510  -6474617.497
10 0 59358  45462.000000  0   -1076804.771  -1180806.556  -6707705.235
10 0 59358  45582.000000  0    -951734.042   -278673.221  -6823813.517
10 0 59358  45702.000000  0    -794376.668    625813.145  -6820947.617
10 0 59358  45822.000000  0    -607556.770   1516454.628  -6699156.816
10 0 59358  45942.000000  0    -394886.868   2377342.029  -6460533.576
10 0 59358  46062.000000  0    -160701.392   3193132.185  -6109182.643
10 0 59358  46182.000000  0      90027.734   3949318.508  -5651159.167
10 0 59358  46302.000000  0     351791.398   4632488.236  -5094373.875
10 0 59358  46422.000000  0     618657.338   5230563.368  -4448468.458
10 0 59358  46542.000000  0     884396.891   5733021.980  -3724659.561
10 0 59358  46662.000000  0    1142622.007   6131093.307  -2935552.698
10 0 59358  46782.000000  0    1386929.473   6417922.859  -2094929.077
10 0 59358  46902.000000  0    1611049.476   6588703.432  -1217507.266
10 0 59358  47022.000000  0    1808994.993   6640767.341   -318683.500
10 0 59358  47142.000000  0    1975207.729   6573635.871    585744.065
10 0 59358  47262.000000  0    2104696.405   6389025.000   1479860.053
10 0 59358  47382.000000  0    2193164.657   6090807.611   2347919.897
10 0 59358  47502.000000  0    2237124.910   5684932.433   3174635.005
10 0 59358  47622.000000  0    2233995.726   5179302.527   3945449.612
10 0 59358  47742.000000  0    2182178.853   4583615.069   4646803.533
10 0 59358  47862.000000  0    2081114.762   3909164.876   5266374.785
10 0 59358  47982.000000  0    1931314.969   3168619.345   5793292.807
10 0 59358  48102.000000  0    1734372.844   2375774.371   6218324.877
10 0 59358  48222.000000  0    1492951.060   1545291.451   6534033.838
10 0 59358  48342.000000  0    1210746.098    692421.453   6734902.067
10 0 59358  48462.000000  0     892431.156   -167276.784   6817420.858
10 0 59358  48582.000000  0     543578.626  -1018218.887   6780148.961
10 0 59358  48702.000000  0     170562.274  -1845077.931   6623737.241
10 0 59358  48822.000000  0    -219559.409  -2633060.486   6350917.842
10 0 59358  48942.000000  0    -619176.277  -3368172.572   5966458.458
10 0 59358  49062.000000  0   -1020272.455  -4037468.839   5477081.708
10 0 59358  49182.000000  0   -1414584.089  -4629282.739   4891354.914
10 0 59358  49302.000000  0   -1793768.556  -5133437.089   4219548.608
10 0 59358  49422.000000  0   -2149580.259  -5541429.225   3473461.069
10 0 59358  49542.000000  0   -2474048.790  -5846583.507   2666211.654
10 0 59358  49662.000000  0   -2759654.931  -6044167.477   1812008.631
10 0 59358  49782.000000  0   -2999500.478  -6131470.855    925895.320
10 0 59358  49902.000000  0   -3187467.790  -6107844.498     23478.734
10 0 59358  50022.000000  0   -3318364.844  -5974697.923   -879353.442
10 0 59358  50142.000000  0   -3388052.211  -5735455.080  -1766721.729
10 0 59358  50262.000000  0   -3393548.630  -5395469.115  -2623042.638
10 0 59358  50382.000000  0   -3333112.543  -4961898.859  -3433308.972
10 0 59358  50502.000000  0   -3206297.055  -4443550.426  -4183356.005
10 0 59358  50622.000000  0   -3013977.895  -3850689.791  -4860107.634
10 0 59358  50742.000000  0   -2758354.896  -3194831.601  -5451799.302
10 0 59358  50862.000000  0   -2442927.579  -2488508.951  -5948174.342
10 0 59358  50982.000000  0   -2072445.278  -1745029.818  -6340651.819
10 0 59358  51102.000000  0   -1652832.424   -978224.545  -6622463.888
10 0 59358  51222.000000  0   -1191091.986   -202189.787  -6788760.437
10 0 59358  51342.000000  0    -695189.518    568965.932  -6836682.411
10 0 59358  51462.000000  0    -173917.950   1321371.955  -6765405.677
10 0 59358  51582.000000  0     363254.082   2041638.233  -6576153.250
10 0 59358  51702.000000  0     906348.934   2717087.900  -6272178.679
10 0 59358  51822.000000  0    1445061.882   3335977.705  -5858716.822
10 0 59358  51942.000000  0    1968952.135   3887701.438  -5342902.103
10 0 59358  52062.000000  0    2467642.035   4362973.371  -4733656.842
10 0 59358  52182.000000  0    2931021.033   4753990.188  -4041548.547
10 0 59358  52302.000000  0    3349450.141   5054567.005  -3278616.263
10 0 59358  52422.000000  0    3713963.497   5260244.080  -2458168.986
99
